NORAD_CAT_ID,OBJECT_NAME,OBJECT_TYPE,EPOCH,MEAN_MOTION,ECCENTRICITY,INCLINATION,RA_OF_ASC_NODE,ARG_OF_PERICENTER,MEAN_ANOMALY,BSTAR,MEAN_MOTION_DOT,MEAN_MOTION_DDOT,TLE_LINE0,TLE_LINE1,TLE_LINE2,SEMIMAJOR_AXIS,PERIOD,APOGEE,PERIGEE,DECAYED
53014.0,STARLINK-4183,PAYLOAD,2024-04-22 19:01:35,15.088394,0.0001246,53.2162,283.2278,78.844,281.2692,0.00027547,4.099e-05,0.0,0 STARLINK-4183,1 53014U 22076AE  24113.79277052  .00004099  00000-0  27547-3 0  9990,2 53014  53.2162 283.2278 0001246  78.8440 281.2692 15.08839400 99433,6917.882,95.438,540.609,538.885,0.0
53014.0,STARLINK-4183,PAYLOAD,2024-04-23 01:23:07,15.08853683,0.0001155,53.2191,282.0375,96.2555,263.8569,0.00050219,7.716e-05,0.0,0 STARLINK-4183,1 53014U 22076AE  24114.05772315  .00007716  00000-0  50219-3 0  9993,2 53014  53.2191 282.0375 0001155  96.2555 263.8569 15.08853683 99944,6917.839,95.437,540.503,538.905,0.0
53014.0,STARLINK-4183,PAYLOAD,2024-04-23 10:55:27,15.08823799,0.000129,53.2164,280.255,86.4787,273.6353,-0.00021461,-3.7e-05,0.0,0 STARLINK-4183,1 53014U 22076AE  24114.45517699 -.00003700  00000-0 -21461-3 0  9997,2 53014  53.2164 280.2550 0001290  86.4787 273.6353 15.08823799100002,6917.93,95.439,540.687,538.902,0.0
53014.0,STARLINK-4183,PAYLOAD,2024-04-23 20:27:45,15.08840726,0.0001208,53.2159,278.4684,105.6158,254.4967,0.00017569,2.509e-05,0.0,0 STARLINK-4183,1 53014U 22076AE  24114.85261326  .00002509  00000-0  17569-3 0  9992,2 53014  53.2159 278.4684 0001208 105.6158 254.4967 15.08840726100061,6917.878,95.438,540.579,538.907,0.0
53014.0,STARLINK-4183,PAYLOAD,2024-04-23 22:03:08,15.08843993,0.000132,53.2164,278.1721,82.4692,277.645,0.00023673,3.482e-05,0.0,0 STARLINK-4183,1 53014U 22076AE  24114.91885232  .00003482  00000-0  23673-3 0  9991,2 53014  53.2164 278.1721 0001320  82.4692 277.6450 15.08843993 99606,6917.868,95.437,540.646,538.82,0.0
53014.0,STARLINK-4183,PAYLOAD,2024-04-24 01:13:54,15.08854239,0.0001344,53.2185,277.5775,85.4169,274.6976,0.00043733,6.682e-05,0.0,0 STARLINK-4183,1 53014U 22076AE  24115.05132877  .00006682  00000-0  43733-3 0  9991,2 53014  53.2185 277.5775 0001344  85.4169 274.6976 15.08854239100090,6917.837,95.437,540.632,538.772,0.0
53014.0,STARLINK-4183,PAYLOAD,2024-04-24 10:46:15,15.08802331,0.0001311,53.2176,275.7931,113.7133,246.3997,-0.0004896,-8.063e-05,0.0,0 STARLINK-4183,1 53014U 22076AE  24115.44879396 -.00008063  00000-0 -48960-3 0  9992,2 53014  53.2176 275.7931 0001311 113.7133 246.3997 15.08802331100156,6917.996,95.44,540.767,538.954,0.0
53014.0,STARLINK-4183,PAYLOAD,2024-04-24 13:57:01,15.0884063,0.0001946,53.2186,275.1979,125.765,234.3524,0.00041503,6.323e-05,0.0,0 STARLINK-4183,1 53014U 22076AE  24115.58126225  .00006323  00000-0  41503-3 0  9994,2 53014  53.2186 275.1979 0001946 125.7650 234.3524 15.08840630 99709,6917.878,95.438,541.09,538.397,0.0
53014.0,STARLINK-4183,PAYLOAD,2024-04-24 20:18:33,15.08847786,0.0001407,53.2181,274.0091,104.4827,255.6321,0.0010372,0.00016261,0.0,0 STARLINK-4183,1 53014U 22076AE  24115.84622685  .00016261  00000-0  10372-2 0  9995,2 53014  53.2181 274.0091 0001407 104.4827 255.6321 15.08847786100218,6917.857,95.437,540.695,538.748,0.0
53014.0,STARLINK-4183,PAYLOAD,2024-04-24 21:53:57,15.08859666,0.0001402,53.2177,273.7134,95.9304,264.1848,0.0015889,0.00025103,0.0,0 STARLINK-4183,1 53014U 22076AE  24115.91246607  .00025103  00000-0  15889-2 0  9992,2 53014  53.2177 273.7134 0001402  95.9304 264.1848 15.08859666 99751,6917.82,95.436,540.655,538.715,0.0
53014.0,STARLINK-4183,PAYLOAD,2024-04-25 01:04:43,15.08879294,0.0001416,53.2169,273.12,87.3032,272.8123,0.0028853,0.00045981,0.0,0 STARLINK-4183,1 53014U 22076AE  24116.04494542  .00045981  00000-0  28853-2 0  9991,2 53014  53.2169 273.1200 0001416  87.3032 272.8123 15.08879294100246,6917.76,95.435,540.605,538.646,0.0
53014.0,STARLINK-4183,PAYLOAD,2024-04-25 13:47:47,15.08870062,0.0001171,53.2171,270.7408,86.5996,273.513,0.0013222,0.00020835,0.0,0 STARLINK-4183,1 53014U 22076AE  24116.57486089  .00020835  00000-0  13222-2 0  9991,2 53014  53.2171 270.7408 0001171  86.5996 273.5130 15.08870062100329,6917.789,95.436,540.464,538.843,0.0
53014.0,STARLINK-4183,PAYLOAD,2024-04-25 21:44:43,15.08869852,0.0001501,53.2179,269.25,70.9574,289.1581,0.0017485,0.00027672,0.0,0 STARLINK-4183,1 53014U 22076AE  24116.90605781  .00027672  00000-0  17485-2 0  9991,2 53014  53.2179 269.2500 0001501  70.9574 289.1581 15.08869852 99908,6917.789,95.436,540.693,538.616,0.0
53014.0,STARLINK-4183,PAYLOAD,2024-04-26 00:55:29,15.08866426,0.0001493,53.2195,268.6558,71.004,289.1114,0.0012726,0.00020038,0.0,0 STARLINK-4183,1 53014U 22076AE  24117.03853717  .00020038  00000-0  12726-2 0  9992,2 53014  53.2195 268.6558 0001493  71.0040 289.1114 15.08866426100394,6917.8,95.436,540.697,538.632,0.0
53014.0,STARLINK-4183,PAYLOAD,2024-04-26 13:38:34,15.08856454,0.0001273,53.218,266.281,99.065,261.0487,0.0018899,0.00029931,0.0,0 STARLINK-4183,1 53014U 22076AE  24117.56845870  .00029931  00000-0  18899-2 0  9999,2 53014  53.2180 266.2810 0001273  99.0650 261.0487 15.08856454100477,6917.83,95.437,540.576,538.814,0.0
53014.0,STARLINK-4183,PAYLOAD,2024-04-26 16:49:20,15.08866017,0.0001187,53.218,265.6875,88.6916,271.4213,0.0022971,0.00036486,0.0,0 STARLINK-4183,1 53014U 22076AE  24117.70093679  .00036486  00000-0  22971-2 0  9996,2 53014  53.2180 265.6875 0001187  88.6916 271.4213 15.08866017100023,6917.801,95.436,540.487,538.845,0.0
53014.0,STARLINK-4183,PAYLOAD,2024-04-27 13:29:20,15.0888368,0.0001418,53.2185,261.8214,74.5694,285.5454,0.001726,0.00027321,0.0,0 STARLINK-4183,1 53014U 22076AE  24118.56204342  .00027321  00000-0  17260-2 0  9995,2 53014  53.2185 261.8214 0001418  74.5694 285.5454 15.08883680100621,6917.747,95.435,540.593,538.631,0.0
53014.0,STARLINK-4183,PAYLOAD,2024-04-27 19:50:52,15.08905957,0.0001435,53.2182,260.6324,60.3185,299.795,0.003248,0.00051878,0.0,0 STARLINK-4183,1 53014U 22076AE  24118.82699589  .00051878  00000-0  32480-2 0  9990,2 53014  53.2182 260.6324 0001435  60.3185 299.7950 15.08905957100196,6917.679,95.433,540.536,538.551,0.0
53014.0,STARLINK-4183,PAYLOAD,2024-04-28 02:12:24,15.08823595,0.0001341,53.218,259.4417,79.0981,281.0162,-0.0031739,-0.00050424,0.0,0 STARLINK-4183,1 53014U 22076AE  24119.09195535 -.00050424  00000-0 -31739-2 0  9996,2 53014  53.2180 259.4417 0001341  79.0981 281.0162 15.08823595100703,6917.931,95.439,540.723,538.868,0.0
53014.0,STARLINK-4183,PAYLOAD,2024-04-28 13:20:07,15.08807412,0.0001213,53.2172,257.3606,78.3162,281.7966,-0.00091641,-0.0001483,0.0,0 STARLINK-4183,1 53014U 22076AE  24119.55564448 -.00014830  00000-0 -91641-3 0  9990,2 53014  53.2172 257.3606 0001213  78.3162 281.7966 15.08807412100778,6917.98,95.44,540.684,539.006,0.0
53014.0,STARLINK-4183,PAYLOAD,2024-04-28 14:55:30,15.08807028,0.000113,53.2177,257.0632,84.3444,275.7677,-0.00033823,-5.662e-05,0.0,0 STARLINK-4183,1 53014U 22076AE  24119.62188622 -.00005662  00000-0 -33823-3 0  9995,2 53014  53.2177 257.0632 0001130  84.3444 275.7677 15.08807028100312,6917.981,95.44,540.628,539.064,0.0
53014.0,STARLINK-4183,PAYLOAD,2024-04-28 21:17:04,15.08807215,0.0001159,53.2169,255.874,80.0833,280.029,0.0013929,0.0002193,0.0,0 STARLINK-4183,1 53014U 22076AE  24119.88685557  .00021930  00000-0  13929-2 0  9990,2 53014  53.2169 255.8740 0001159  80.0833 280.0290 15.08807215100357,6917.981,95.44,540.647,539.044,0.0
53014.0,STARLINK-4183,PAYLOAD,2024-04-29 02:03:14,15.08817148,0.0001157,53.2176,254.9817,83.2211,276.8912,0.0017925,0.00028337,0.0,0 STARLINK-4183,1 53014U 22076AE  24120.08557956  .00028337  00000-0  17925-2 0  9993,2 53014  53.2176 254.9817 0001157  83.2211 276.8912 15.08817148100858,6917.95,95.439,540.616,539.015,0.0
53014.0,STARLINK-4183,PAYLOAD,2024-04-29 14:46:19,15.08837579,0.0001197,53.2174,252.6037,79.6327,280.48,0.0014469,0.00022813,0.0,0 STARLINK-4183,1 53014U 22076AE  24120.61550451  .00022813  00000-0  14469-2 0  9998,2 53014  53.2174 252.6037 0001197  79.6327 280.4800 15.08837579100460,6917.888,95.438,540.581,538.925,0.0
53014.0,STARLINK-4183,PAYLOAD,2024-04-29 16:21:42,15.08841142,0.0001194,53.2174,252.3065,79.1267,280.9859,0.0015074,0.00023784,0.0,0 STARLINK-4183,1 53014U 22076AE  24120.68174451  .00023784  00000-0  15074-2 0  9998,2 53014  53.2174 252.3065 0001194  79.1267 280.9859 15.08841142100946,6917.877,95.437,540.568,538.916,0.0
53014.0,STARLINK-4183,PAYLOAD,2024-04-30 13:01:43,15.08840938,7.95e-05,53.2165,248.441,89.0571,271.0512,0.0011387,0.00017881,0.0,0 STARLINK-4183,1 53014U 22076AE  24121.54286455  .00017881  00000-0  11387-2 0  9996,2 53014  53.2165 248.4410 0000795  89.0571 271.0512 15.08840938101074,6917.878,95.437,540.292,539.193,0.0
53014.0,STARLINK-4183,PAYLOAD,2024-04-30 14:37:06,15.08844358,0.0001089,53.2165,248.1435,84.3233,275.7883,0.0013637,0.00021484,0.0,0 STARLINK-4183,1 53014U 22076AE  24121.60910505  .00021484  00000-0  13637-2 0  9997,2 53014  53.2165 248.1435 0001089  84.3233 275.7883 15.08844358100619,6917.867,95.437,540.485,538.979,0.0
53014.0,STARLINK-4183,PAYLOAD,2024-04-30 16:12:29,15.08846346,0.0001057,53.2167,247.8466,81.8304,278.2808,0.0016256,0.00025683,0.0,0 STARLINK-4183,1 53014U 22076AE  24121.67534507  .00025683  00000-0  16256-2 0  9993,2 53014  53.2167 247.8466 0001057  81.8304 278.2808 15.08846346100622,6917.861,95.437,540.457,538.995,0.0
53014.0,STARLINK-4183,PAYLOAD,2024-05-01 14:27:53,15.08849403,7.57e-05,53.2172,243.684,79.78,280.3278,0.00089524,0.00013992,0.0,0 STARLINK-4183,1 53014U 22076AE  24122.60269994  .00013992  00000-0  89524-3 0  9991,2 53014  53.2172 243.6840 0000757  79.7800 280.3278 15.08849403100768,6917.852,95.437,540.24,539.193,0.0
53014.0,STARLINK-4183,PAYLOAD,2024-05-02 12:43:17,15.08826888,0.0001461,53.2165,239.5199,89.0487,271.0673,-0.0002173,-3.743e-05,0.0,0 STARLINK-4183,1 53014U 22076AE  24123.53006148 -.00003743  00000-0 -21730-3 0  9994,2 53014  53.2165 239.5199 0001461  89.0487 271.0673 15.08826888101375,6917.92,95.438,540.796,538.775,0.0
